{
  "type": "FeatureCollection",
  "features": [
    {
      "type": "Feature",
      "properties": {
        "norad_id": 39586,
        "name": "COSMOS 2251 DEB",
        "group": "cosmos-2251-debris",
        "lat": 33.61340258501293,
        "lon": -124.57151997302176,
        "alt_km": 760.2432006823201,
        "timestamp": "2025-12-14T20:40:32.171285+00:00",
        "meta_object_name": "COSMOS 2251 DEB",
        "meta_object_id": "1993-036BUR",
        "meta_epoch": "2025-12-11T10:34:49.908288",
        "meta_mean_motion": 14.21221392,
        "meta_eccentricity": 0.01007513,
        "meta_inclination": 74.009,
        "meta_ra_of_asc_node": 230.5784,
        "meta_arg_of_pericenter": 5.5344,
        "meta_mean_anomaly": 174.6065,
        "meta_ephemeris_type": 0,
        "meta_classification_type": "U",
        "meta_norad_cat_id": 39586,
        "meta_element_set_no": 999,
        "meta_rev_at_epoch": 60953,
        "meta_bstar": 0.00065665467,
        "meta_mean_motion_dot": 1.479e-05,
        "meta_mean_motion_ddot": 0,
        "tle_line1": "1 39586U 93036BUR 25345.44085542  .00001479  00000+0  65665-3 0  9994",
        "tle_line2": "2 39586  74.0090 230.5784 0100751   5.5344 174.6065 14.21221392609536"
      },
      "geometry": {
        "type": "Point",
        "coordinates": [
          -124.57151997302176,
          33.61340258501293
        ]
      }
    },
    {
      "type": "Feature",
      "properties": {
        "norad_id": 39591,
        "name": "COSMOS 2251 DEB",
        "group": "cosmos-2251-debris",
        "lat": 71.50172925668883,
        "lon": -58.253849715418646,
        "alt_km": 743.4313093434885,
        "timestamp": "2025-12-14T20:40:32.171295+00:00",
        "meta_object_name": "COSMOS 2251 DEB",
        "meta_object_id": "1993-036BUW",
        "meta_epoch": "2025-12-14T02:17:56.256000",
        "meta_mean_motion": 14.4181661,
        "meta_eccentricity": 0.00292248,
        "meta_inclination": 74.0214,
        "meta_ra_of_asc_node": 244.2482,
        "meta_arg_of_pericenter": 357.0219,
        "meta_mean_anomaly": 70.474,
        "meta_ephemeris_type": 0,
        "meta_classification_type": "U",
        "meta_norad_cat_id": 39591,
        "meta_element_set_no": 999,
        "meta_rev_at_epoch": 61796,
        "meta_bstar": 0.00040583296,
        "meta_mean_motion_dot": 1.307e-05,
        "meta_mean_motion_ddot": 0,
        "tle_line1": "1 39591U 93036BUW 25348.09579000  .00001307  00000+0  40583-3 0  9993",
        "tle_line2": "2 39591  74.0214 244.2482 0029224 357.0219  70.4740 14.41816610617962"
      },
      "geometry": {
        "type": "Point",
        "coordinates": [
          -58.253849715418646,
          71.50172925668883
        ]
      }
    },
    {
      "type": "Feature",
      "properties": {
        "norad_id": 40218,
        "name": "COSMOS 2251 DEB",
        "group": "cosmos-2251-debris",
        "lat": -26.606028115019054,
        "lon": -123.34228654497974,
        "alt_km": 746.9973373649991,
        "timestamp": "2025-12-14T20:40:32.171305+00:00",
        "meta_object_name": "COSMOS 2251 DEB",
        "meta_object_id": "1993-036BUX",
        "meta_epoch": "2025-12-02T02:20:48.132384",
        "meta_mean_motion": 14.41546301,
        "meta_eccentricity": 0.00163619,
        "meta_inclination": 74.0309,
        "meta_ra_of_asc_node": 268.5457,
        "meta_arg_of_pericenter": 353.795,
        "meta_mean_anomaly": 6.3,
        "meta_ephemeris_type": 0,
        "meta_classification_type": "U",
        "meta_norad_cat_id": 40218,
        "meta_element_set_no": 999,
        "meta_rev_at_epoch": 58708,
        "meta_bstar": 0.00047133972,
        "meta_mean_motion_dot": 1.508e-05,
        "meta_mean_motion_ddot": 0,
        "tle_line1": "1 40218U 93036BUX 25336.09777931  .00001508  00000+0  47134-3 0  9993",
        "tle_line2": "2 40218  74.0309 268.5457 0016361 353.7950   6.3000 14.41546301587082"
      },
      "geometry": {
        "type": "Point",
        "coordinates": [
          -123.34228654497974,
          -26.606028115019054
        ]
      }
    },
    {
      "type": "Feature",
      "properties": {
        "norad_id": 40223,
        "name": "COSMOS 2251 DEB",
        "group": "cosmos-2251-debris",
        "lat": 53.12121195578007,
        "lon": 106.92380576312344,
        "alt_km": 556.0265330054617,
        "timestamp": "2025-12-14T20:40:32.171316+00:00",
        "meta_object_name": "COSMOS 2251 DEB",
        "meta_object_id": "1993-036BVC",
        "meta_epoch": "2025-12-14T00:26:13.435584",
        "meta_mean_motion": 15.03818233,
        "meta_eccentricity": 0.00153317,
        "meta_inclination": 73.9371,
        "meta_ra_of_asc_node": 86.0727,
        "meta_arg_of_pericenter": 290.315,
        "meta_mean_anomaly": 242.4766,
        "meta_ephemeris_type": 0,
        "meta_classification_type": "U",
        "meta_norad_cat_id": 40223,
        "meta_element_set_no": 999,
        "meta_rev_at_epoch": 59393,
        "meta_bstar": 0.0044494793,
        "meta_mean_motion_dot": 0.00061853,
        "meta_mean_motion_ddot": 0,
        "tle_line1": "1 40223U 93036BVC 25348.01821106  .00061853  00000+0  44495-2 0  9993",
        "tle_line2": "2 40223  73.9371  86.0727 0015331 290.3150 242.4766 15.03818233593930"
      },
      "geometry": {
        "type": "Point",
        "coordinates": [
          106.92380576312344,
          53.12121195578007
        ]
      }
    },
    {
      "type": "Feature",
      "properties": {
        "norad_id": 40228,
        "name": "COSMOS 2251 DEB",
        "group": "cosmos-2251-debris",
        "lat": -36.44929290978779,
        "lon": 88.79788022019409,
        "alt_km": 763.9290519135157,
        "timestamp": "2025-12-14T20:40:32.171326+00:00",
        "meta_object_name": "COSMOS 2251 DEB",
        "meta_object_id": "1993-036BVH",
        "meta_epoch": "2025-12-11T12:30:37.061856",
        "meta_mean_motion": 14.40990348,
        "meta_eccentricity": 0.00239974,
        "meta_inclination": 74.0549,
        "meta_ra_of_asc_node": 262.7798,
        "meta_arg_of_pericenter": 324.5031,
        "meta_mean_anomaly": 213.1591,
        "meta_ephemeris_type": 0,
        "meta_classification_type": "U",
        "meta_norad_cat_id": 40228,
        "meta_element_set_no": 999,
        "meta_rev_at_epoch": 58903,
        "meta_bstar": 0.00055464719,
        "meta_mean_motion_dot": 1.762e-05,
        "meta_mean_motion_ddot": 0,
        "tle_line1": "1 40228U 93036BVH 25345.52126229  .00001762  00000+0  55465-3 0  9998",
        "tle_line2": "2 40228  74.0549 262.7798 0023997 324.5031 213.1591 14.40990348589035"
      },
      "geometry": {
        "type": "Point",
        "coordinates": [
          88.79788022019409,
          -36.44929290978779
        ]
      }
    },
    {
      "type": "Feature",
      "properties": {
        "norad_id": 40230,
        "name": "COSMOS 2251 DEB",
        "group": "cosmos-2251-debris",
        "lat": 73.29252139561278,
        "lon": -64.7060966745695,
        "alt_km": 733.4857239048943,
        "timestamp": "2025-12-14T20:40:32.171336+00:00",
        "meta_object_name": "COSMOS 2251 DEB",
        "meta_object_id": "1993-036BVK",
        "meta_epoch": "2025-12-05T11:49:12.794880",
        "meta_mean_motion": 14.49259606,
        "meta_eccentricity": 0.00191133,
        "meta_inclination": 74.0458,
        "meta_ra_of_asc_node": 240.4744,
        "meta_arg_of_pericenter": 299.5216,
        "meta_mean_anomaly": 242.5097,
        "meta_ephemeris_type": 0,
        "meta_classification_type": "U",
        "meta_norad_cat_id": 40230,
        "meta_element_set_no": 999,
        "meta_rev_at_epoch": 58866,
        "meta_bstar": 0.0014637297,
        "meta_mean_motion_dot": 5.571e-05,
        "meta_mean_motion_ddot": 0,
        "tle_line1": "1 40230U 93036BVK 25339.49250920  .00005571  00000+0  14637-2 0  9993",
        "tle_line2": "2 40230  74.0458 240.4744 0019113 299.5216 242.5097 14.49259606588661"
      },
      "geometry": {
        "type": "Point",
        "coordinates": [
          -64.7060966745695,
          73.29252139561278
        ]
      }
    },
    {
      "type": "Feature",
      "properties": {
        "norad_id": 40233,
        "name": "COSMOS 2251 DEB",
        "group": "cosmos-2251-debris",
        "lat": -21.293262776517157,
        "lon": 92.59873972503014,
        "alt_km": 733.9079364625095,
        "timestamp": "2025-12-14T20:40:32.171347+00:00",
        "meta_object_name": "COSMOS 2251 DEB",
        "meta_object_id": "1993-036BVN",
        "meta_epoch": "2025-12-12T17:44:37.201344",
        "meta_mean_motion": 14.58419195,
        "meta_eccentricity": 0.00452349,
        "meta_inclination": 73.9396,
        "meta_ra_of_asc_node": 103.1069,
        "meta_arg_of_pericenter": 178.0114,
        "meta_mean_anomaly": 182.1239,
        "meta_ephemeris_type": 0,
        "meta_classification_type": "U",
        "meta_norad_cat_id": 40233,
        "meta_element_set_no": 999,
        "meta_rev_at_epoch": 59137,
        "meta_bstar": 0.0020636602,
        "meta_mean_motion_dot": 9.688e-05,
        "meta_mean_motion_ddot": 0,
        "tle_line1": "1 40233U 93036BVN 25346.73931946  .00009688  00000+0  20637-2 0  9995",
        "tle_line2": "2 40233  73.9396 103.1069 0045234 178.0114 182.1239 14.58419195591379"
      },
      "geometry": {
        "type": "Point",
        "coordinates": [
          92.59873972503014,
          -21.293262776517157
        ]
      }
    }
  ]
}